{
  "type": "FeatureCollection",
  "features": [
    {
      "type": "Feature",
      "properties": {
        "norad_id": 24946,
        "name": "IRIDIUM 33",
        "group": "iridium-33-debris",
        "lat": 86.30398300733421,
        "lon": 139.96341619910478,
        "alt_km": 764.5932096256165,
        "timestamp": "2025-12-27T20:30:59.665089+00:00",
        "meta_object_name": "IRIDIUM 33",
        "meta_object_id": "1997-051C",
        "meta_epoch": "2025-12-27T10:03:40.428288",
        "meta_mean_motion": 14.3504753,
        "meta_eccentricity": 0.0008742,
        "meta_inclination": 86.3857,
        "meta_ra_of_asc_node": 62.0591,
        "meta_arg_of_pericenter": 153.7096,
        "meta_mean_anomaly": 206.4545,
        "meta_ephemeris_type": 0,
        "meta_classification_type": "U",
        "meta_norad_cat_id": 24946,
        "meta_element_set_no": 999,
        "meta_rev_at_epoch": 48045,
        "meta_bstar": 0.00012364,
        "meta_mean_motion_dot": 3.72e-06,
        "meta_mean_motion_ddot": 0,
        "tle_line1": "1 24946U 97051C   25361.41921792  .00000372  00000+0  12364-3 0  9999",
        "tle_line2": "2 24946  86.3857  62.0591 0008742 153.7096 206.4545 14.35047530480458"
      },
      "geometry": {
        "type": "Point",
        "coordinates": [
          139.96341619910478,
          86.30398300733421
        ]
      }
    },
    {
      "type": "Feature",
      "properties": {
        "norad_id": 33773,
        "name": "IRIDIUM 33 DEB",
        "group": "iridium-33-debris",
        "lat": 46.21902939463114,
        "lon": -129.58369848980752,
        "alt_km": 735.5122481638336,
        "timestamp": "2025-12-27T20:30:59.665114+00:00",
        "meta_object_name": "IRIDIUM 33 DEB",
        "meta_object_id": "1997-051L",
        "meta_epoch": "2025-12-27T04:55:31.304352",
        "meta_mean_motion": 14.43287164,
        "meta_eccentricity": 0.0013364,
        "meta_inclination": 86.3996,
        "meta_ra_of_asc_node": 54.4587,
        "meta_arg_of_pericenter": 105.064,
        "meta_mean_anomaly": 255.2041,
        "meta_ephemeris_type": 0,
        "meta_classification_type": "U",
        "meta_norad_cat_id": 33773,
        "meta_element_set_no": 999,
        "meta_rev_at_epoch": 88556,
        "meta_bstar": 0.00032311,
        "meta_mean_motion_dot": 1.109e-05,
        "meta_mean_motion_ddot": 0,
        "tle_line1": "1 33773U 97051L   25361.20522343  .00001109  00000+0  32311-3 0  9996",
        "tle_line2": "2 33773  86.3996  54.4587 0013364 105.0640 255.2041 14.43287164885563"
      },
      "geometry": {
        "type": "Point",
        "coordinates": [
          -129.58369848980752,
          46.21902939463114
        ]
      }
    },
    {
      "type": "Feature",
      "properties": {
        "norad_id": 33775,
        "name": "IRIDIUM 33 DEB",
        "group": "iridium-33-debris",
        "lat": 59.85019526606444,
        "lon": -143.1885351966991,
        "alt_km": 737.0083261507798,
        "timestamp": "2025-12-27T20:30:59.665144+00:00",
        "meta_object_name": "IRIDIUM 33 DEB",
        "meta_object_id": "1997-051N",
        "meta_epoch": "2025-12-27T11:52:15.276000",
        "meta_mean_motion": 14.41500155,
        "meta_eccentricity": 0.0015407,
        "meta_inclination": 86.3623,
        "meta_ra_of_asc_node": 43.2532,
        "meta_arg_of_pericenter": 111.0238,
        "meta_mean_anomaly": 300.6203,
        "meta_ephemeris_type": 0,
        "meta_classification_type": "U",
        "meta_norad_cat_id": 33775,
        "meta_element_set_no": 999,
        "meta_rev_at_epoch": 88353,
        "meta_bstar": 0.00035939,
        "meta_mean_motion_dot": 1.188e-05,
        "meta_mean_motion_ddot": 0,
        "tle_line1": "1 33775U 97051N   25361.49462125  .00001188  00000+0  35939-3 0  9996",
        "tle_line2": "2 33775  86.3623  43.2532 0015407 111.0238 300.6203 14.41500155883534"
      },
      "geometry": {
        "type": "Point",
        "coordinates": [
          -143.1885351966991,
          59.85019526606444
        ]
      }
    },
    {
      "type": "Feature",
      "properties": {
        "norad_id": 33776,
        "name": "IRIDIUM 33 DEB",
        "group": "iridium-33-debris",
        "lat": 6.090966981404263,
        "lon": -105.95652413014199,
        "alt_km": 756.7299908402947,
        "timestamp": "2025-12-27T20:30:59.665157+00:00",
        "meta_object_name": "IRIDIUM 33 DEB",
        "meta_object_id": "1997-051P",
        "meta_epoch": "2025-12-27T06:39:04.912416",
        "meta_mean_motion": 14.38259855,
        "meta_eccentricity": 0.0015922,
        "meta_inclination": 86.403,
        "meta_ra_of_asc_node": 74.6707,
        "meta_arg_of_pericenter": 144.617,
        "meta_mean_anomaly": 279.6987,
        "meta_ephemeris_type": 0,
        "meta_classification_type": "U",
        "meta_norad_cat_id": 33776,
        "meta_element_set_no": 999,
        "meta_rev_at_epoch": 88291,
        "meta_bstar": 0.00028581,
        "meta_mean_motion_dot": 8.89e-06,
        "meta_mean_motion_ddot": 0,
        "tle_line1": "1 33776U 97051P   25361.27714019  .00000889  00000+0  28581-3 0  9997",
        "tle_line2": "2 33776  86.4030  74.6707 0015922 144.6170 279.6987 14.38259855882918"
      },
      "geometry": {
        "type": "Point",
        "coordinates": [
          -105.95652413014199,
          6.090966981404263
        ]
      }
    },
    {
      "type": "Feature",
      "properties": {
        "norad_id": 33777,
        "name": "IRIDIUM 33 DEB",
        "group": "iridium-33-debris",
        "lat": -7.854656811342941,
        "lon": -150.87287437340532,
        "alt_km": 706.3924615680708,
        "timestamp": "2025-12-27T20:30:59.665169+00:00",
        "meta_object_name": "IRIDIUM 33 DEB",
        "meta_object_id": "1997-051Q",
        "meta_epoch": "2025-12-27T11:24:28.894752",
        "meta_mean_motion": 14.55715812,
        "meta_eccentricity": 0.0006611,
        "meta_inclination": 86.3777,
        "meta_ra_of_asc_node": 28.7915,
        "meta_arg_of_pericenter": 188.422,
        "meta_mean_anomaly": 171.6878,
        "meta_ephemeris_type": 0,
        "meta_classification_type": "U",
        "meta_norad_cat_id": 33777,
        "meta_element_set_no": 999,
        "meta_rev_at_epoch": 88748,
        "meta_bstar": 0.00087872,
        "meta_mean_motion_dot": 3.862e-05,
        "meta_mean_motion_ddot": 0,
        "tle_line1": "1 33777U 97051Q   25361.47533443  .00003862  00000+0  87872-3 0  9992",
        "tle_line2": "2 33777  86.3777  28.7915 0006611 188.4220 171.6878 14.55715812887480"
      },
      "geometry": {
        "type": "Point",
        "coordinates": [
          -150.87287437340532,
          -7.854656811342941
        ]
      }
    },
    {
      "type": "Feature",
      "properties": {
        "norad_id": 33850,
        "name": "IRIDIUM 33 DEB",
        "group": "iridium-33-debris",
        "lat": 42.01825402598833,
        "lon": -159.62602367256002,
        "alt_km": 739.0712150484578,
        "timestamp": "2025-12-27T20:30:59.665182+00:00",
        "meta_object_name": "IRIDIUM 33 DEB",
        "meta_object_id": "1997-051T",
        "meta_epoch": "2025-12-27T12:07:20.176032",
        "meta_mean_motion": 14.42185643,
        "meta_eccentricity": 0.0013399,
        "meta_inclination": 86.3408,
        "meta_ra_of_asc_node": 23.8297,
        "meta_arg_of_pericenter": 117.3157,
        "meta_mean_anomaly": 5.6543,
        "meta_ephemeris_type": 0,
        "meta_classification_type": "U",
        "meta_norad_cat_id": 33850,
        "meta_element_set_no": 999,
        "meta_rev_at_epoch": 88365,
        "meta_bstar": 0.00049402,
        "meta_mean_motion_dot": 1.647e-05,
        "meta_mean_motion_ddot": 0,
        "tle_line1": "1 33850U 97051T   25361.50509463  .00001647  00000+0  49402-3 0  9999",
        "tle_line2": "2 33850  86.3408  23.8297 0013399 117.3157   5.6543 14.42185643883652"
      },
      "geometry": {
        "type": "Point",
        "coordinates": [
          -159.62602367256002,
          42.01825402598833
        ]
      }
    },
    {
      "type": "Feature",
      "properties": {
        "norad_id": 33853,
        "name": "IRIDIUM 33 DEB",
        "group": "iridium-33-debris",
        "lat": -17.955709763293648,
        "lon": -18.116415497427184,
        "alt_km": 1035.8201531801187,
        "timestamp": "2025-12-27T20:30:59.665193+00:00",
        "meta_object_name": "IRIDIUM 33 DEB",
        "meta_object_id": "1997-051W",
        "meta_epoch": "2025-12-27T10:55:48.364896",
        "meta_mean_motion": 13.99131757,
        "meta_eccentricity": 0.0207891,
        "meta_inclination": 86.0001,
        "meta_ra_of_asc_node": 343.3579,
        "meta_arg_of_pericenter": 190.429,
        "meta_mean_anomaly": 299.8978,
        "meta_ephemeris_type": 0,
        "meta_classification_type": "U",
        "meta_norad_cat_id": 33853,
        "meta_element_set_no": 999,
        "meta_rev_at_epoch": 85551,
        "meta_bstar": 0.0013259,
        "meta_mean_motion_dot": 2.329e-05,
        "meta_mean_motion_ddot": 0,
        "tle_line1": "1 33853U 97051W   25361.45542089  .00002329  00000+0  13259-2 0  9995",
        "tle_line2": "2 33853  86.0001 343.3579 0207891 190.4290 299.8978 13.99131757855517"
      },
      "geometry": {
        "type": "Point",
        "coordinates": [
          -18.116415497427184,
          -17.955709763293648
        ]
      }
    }
  ]
}